{"type": "FeatureCollection", "features": [ {"type": "Feature", "properties": {"norad_id": 32316, "name": "FENGYUN 1C DEB", "group": "fengyun-1c-debris", "lat": 41.8182417177591, "lon": -155.40407922445448, "alt_km": 734.6718657028696, "timestamp": "2025-12-15T04:01:20.737688+00:00", "meta": {"OBJECT_NAME": "FENGYUN 1C DEB", "OBJECT_ID": "1999-025CXH", "EPOCH": "2025-12-14T01:11:36.263328", "MEAN_MOTION": 14.5189036, "ECCENTRICITY": 0.00264103, "INCLINATION": 99.5293, "RA_OF_ASC_NODE": 14.6858, "ARG_OF_PERICENTER": 325.4764, "MEAN_ANOMALY": 92.2283, "EPHEMERIS_TYPE": 0, "CLASSIFICATION_TYPE": "U", "NORAD_CAT_ID": 32316, "ELEMENT_SET_NO": 999, "REV_AT_EPOCH": 95796, "BSTAR": 0.0018824303, "MEAN_MOTION_DOT": 7.572e-05, "MEAN_MOTION_DDOT": 0}, "tle": {"line1": "1 32316U 99025CXH 25348.04972527  .00007572  00000+0  18824-2 0  9993", "line2": "2 32316  99.5293  14.6858 0026410 325.4764  92.2283 14.51890360957969"}}, "geometry": {"type": "Point", "coordinates": [-155.40407922445448, 41.8182417177591]}}, {"type": "Feature", "properties": {"norad_id": 32320, "name": "FENGYUN 1C DEB", "group": "fengyun-1c-debris", "lat": -79.52584065979221, "lon": -70.99431204958539, "alt_km": 803.9957688798704, "timestamp": "2025-12-15T04:01:20.737699+00:00", "meta": {"OBJECT_NAME": "FENGYUN 1C DEB", "OBJECT_ID": "1999-025CXM", "EPOCH": "2025-12-13T20:39:55.915776", "MEAN_MOTION": 14.36148347, "ECCENTRICITY": 0.00562109, "INCLINATION": 100.3743, "RA_OF_ASC_NODE": 205.1738, "ARG_OF_PERICENTER": 44.6998, "MEAN_ANOMALY": 315.8692, "EPHEMERIS_TYPE": 0, "CLASSIFICATION_TYPE": "U", "NORAD_CAT_ID": 32320, "ELEMENT_SET_NO": 999, "REV_AT_EPOCH": 62189, "BSTAR": 0.0010339383, "MEAN_MOTION_DOT": 3.009e-05, "MEAN_MOTION_DDOT": 0}, "tle": {"line1": "1 32320U 99025CXM 25347.86106384  .00003009  00000+0  10339-2 0  9991", "line2": "2 32320 100.3743 205.1738 0056210  44.6998 315.8692 14.36148347621891"}}, "geometry": {"type": "Point", "coordinates": [-70.99431204958539, -79.52584065979221]}}, {"type": "Feature", "properties": {"norad_id": 32322, "name": "FENGYUN 1C DEB", "group": "fengyun-1c-debris", "lat": -14.612471998022027, "lon": 48.63923618517984, "alt_km": 1194.6542253281723, "timestamp": "2025-12-15T04:01:20.737709+00:00", "meta": {"OBJECT_NAME": "FENGYUN 1C DEB", "OBJECT_ID": "1999-025CXP", "EPOCH": "2025-12-13T22:17:58.566048", "MEAN_MOTION": 13.34139169, "ECCENTRICITY": 0.04192023, "INCLINATION": 98.3701, "RA_OF_ASC_NODE": 229.8224, "ARG_OF_PERICENTER": 94.6417, "MEAN_ANOMALY": 270.2706, "EPHEMERIS_TYPE": 0, "CLASSIFICATION_TYPE": "U", "NORAD_CAT_ID": 32322, "ELEMENT_SET_NO": 999, "REV_AT_EPOCH": 60395, "BSTAR": 0.0015201045, "MEAN_MOTION_DOT": 1.214e-05, "MEAN_MOTION_DDOT": 0}, "tle": {"line1": "1 32322U 99025CXP 25347.92915007  .00001214  00000+0  15201-2 0  9999", "line2": "2 32322  98.3701 229.8224 0419202  94.6417 270.2706 13.34139169603957"}}, "geometry": {"type": "Point", "coordinates": [48.63923618517984, -14.612471998022027]}}, {"type": "Feature", "properties": {"norad_id": 32323, "name": "FENGYUN 1C DEB", "group": "fengyun-1c-debris", "lat": -34.428998931384974, "lon": -53.7367426357088, "alt_km": 800.9625060840171, "timestamp": "2025-12-15T04:01:20.737719+00:00", "meta": {"OBJECT_NAME": "FENGYUN 1C DEB", "OBJECT_ID": "1999-025CXQ", "EPOCH": "2025-12-11T19:53:55.961952", "MEAN_MOTION": 13.96527739, "ECCENTRICITY": 0.0155374, "INCLINATION": 98.5708, "RA_OF_ASC_NODE": 129.0851, "ARG_OF_PERICENTER": 212.3019, "MEAN_ANOMALY": 146.8558, "EPHEMERIS_TYPE": 0, "CLASSIFICATION_TYPE": "U", "NORAD_CAT_ID": 32323, "ELEMENT_SET_NO": 999, "REV_AT_EPOCH": 60257, "BSTAR": 0.0054384, "MEAN_MOTION_DOT": 8.293e-05, "MEAN_MOTION_DDOT": 0}, "tle": {"line1": "1 32323U 99025CXQ 25345.82911993  .00008293  00000+0  54384-2 0  9996", "line2": "2 32323  98.5708 129.0851 0155374 212.3019 146.8558 13.96527739602570"}}, "geometry": {"type": "Point", "coordinates": [-53.7367426357088, -34.428998931384974]}}, {"type": "Feature", "properties": {"norad_id": 32324, "name": "FENGYUN 1C DEB", "group": "fengyun-1c-debris", "lat": 34.35418632567176, "lon": -82.34255473275181, "alt_km": 881.9083722718988, "timestamp": "2025-12-15T04:01:20.737729+00:00", "meta": {"OBJECT_NAME": "FENGYUN 1C DEB", "OBJECT_ID": "1999-025CXR", "EPOCH": "2025-12-13T12:08:45.341376", "MEAN_MOTION": 14.09148934, "ECCENTRICITY": 0.00499751, "INCLINATION": 99.5336, "RA_OF_ASC_NODE": 89.3046, "ARG_OF_PERICENTER": 22.0109, "MEAN_ANOMALY": 338.319, "EPHEMERIS_TYPE": 0, "CLASSIFICATION_TYPE": "U", "NORAD_CAT_ID": 32324, "ELEMENT_SET_NO": 999, "REV_AT_EPOCH": 64009, "BSTAR": 0.00075570965, "MEAN_MOTION_DOT": 1.278e-05, "MEAN_MOTION_DDOT": 0}, "tle": {"line1": "1 32324U 99025CXR 25347.50608034  .00001278  00000+0  75571-3 0  9991", "line2": "2 32324  99.5336  89.3046 0049975  22.0109 338.3190 14.09148934640098"}}, "geometry": {"type": "Point", "coordinates": [-82.34255473275181, 34.35418632567176]}}, {"type": "Feature", "properties": {"norad_id": 32326, "name": "FENGYUN 1C DEB", "group": "fengyun-1c-debris", "lat": 39.79271363602571, "lon": -88.88160139432398, "alt_km": 1000.3233744536392, "timestamp": "2025-12-15T04:01:20.737739+00:00", "meta": {"OBJECT_NAME": "FENGYUN 1C DEB", "OBJECT_ID": "1999-025CXT", "EPOCH": "2025-12-13T00:57:43.680960", "MEAN_MOTION": 13.69281784, "ECCENTRICITY": 0.03865638, "INCLINATION": 98.4907, "RA_OF_ASC_NODE": 276.3849, "ARG_OF_PERICENTER": 138.5694, "MEAN_ANOMALY": 224.5462, "EPHEMERIS_TYPE": 0, "CLASSIFICATION_TYPE": "U", "NORAD_CAT_ID": 32326, "ELEMENT_SET_NO": 999, "REV_AT_EPOCH": 63186, "BSTAR": 0.0005592068, "MEAN_MOTION_DOT": 7.87e-06, "MEAN_MOTION_DDOT": 0}, "tle": {"line1": "1 32326U 99025CXT 25347.04008890  .00000787  00000+0  55921-3 0  9997", "line2": "2 32326  98.4907 276.3849 0386563 138.5694 224.5462 13.69281784631869"}}, "geometry": {"type": "Point", "coordinates": [-88.88160139432398, 39.79271363602571]}}, {"type": "Feature", "properties": {"norad_id": 32332, "name": "FENGYUN 1C DEB", "group": "fengyun-1c-debris", "lat": 23.397014604807868, "lon": 39.21245975314924, "alt_km": 853.1356049103106, "timestamp": "2025-12-15T04:01:20.737750+00:00", "meta": {"OBJECT_NAME": "FENGYUN 1C DEB", "OBJECT_ID": "1999-025CXZ", "EPOCH": "2025-12-13T20:58:32.089728", "MEAN_MOTION": 13.97143471, "ECCENTRICITY": 0.02850622, "INCLINATION": 99.1329, "RA_OF_ASC_NODE": 41.9167, "ARG_OF_PERICENTER": 309.6993, "MEAN_ANOMALY": 47.9348, "EPHEMERIS_TYPE": 0, "CLASSIFICATION_TYPE": "U", "NORAD_CAT_ID": 32332, "ELEMENT_SET_NO": 999, "REV_AT_EPOCH": 93052, "BSTAR": 0.0018273061, "MEAN_MOTION_DOT": 3.559e-05, "MEAN_MOTION_DDOT": 0}, "tle": {"line1": "1 32332U 99025CXZ 25347.87398252  .00003559  00000+0  18273-2 0  9997", "line2": "2 32332  99.1329  41.9167 0285062 309.6993  47.9348 13.97143471930522"}}, "geometry": {"type": "Point", "coordinates": [39.21245975314924, 23.397014604807868]}}, {"type": "Feature", "properties": {"norad_id": 32334, "name": "FENGYUN 1C DEB", "group": "fengyun-1c-debris", "lat": -70.03672223118268, "lon": -163.05193246784347, "alt_km": 850.564355288353, "timestamp": "2025-12-15T04:01:20.737760+00:00", "meta": {"OBJECT_NAME": "FENGYUN 1C DEB", "OBJECT_ID": "1999-025CYB", "EPOCH": "2025-12-14T02:49:58.605024", "MEAN_MOTION": 14.016439, "ECCENTRICITY": 0.00664371, "INCLINATION": 99.2523, "RA_OF_ASC_NODE": 42.5472, "ARG_OF_PERICENTER": 277.2059, "MEAN_ANOMALY": 82.1556, "EPHEMERIS_TYPE": 0, "CLASSIFICATION_TYPE": "U", "NORAD_CAT_ID": 32334, "ELEMENT_SET_NO": 999, "REV_AT_EPOCH": 93959, "BSTAR": 0.00039323184, "MEAN_MOTION_DOT": 5.61e-06, "MEAN_MOTION_DDOT": 0}, "tle": {"line1": "1 32334U 99025CYB 25348.11803941  .00000561  00000+0  39323-3 0  9993", "line2": "2 32334  99.2523  42.5472 0066437 277.2059  82.1556 14.01643900939599"}}, "geometry": {"type": "Point", "coordinates": [-163.05193246784347, -70.03672223118268]}}, {"type": "Feature", "properties": {"norad_id": 32340, "name": "FENGYUN 1C DEB", "group": "fengyun-1c-debris", "lat": 77.3713247327567, "lon": -49.67796803612838, "alt_km": 660.2370088102916, "timestamp": "2025-12-15T04:01:20.737771+00:00", "meta": {"OBJECT_NAME": "FENGYUN 1C DEB", "OBJECT_ID": "1999-025CYH", "EPOCH": "2025-12-10T17:48:09.538848", "MEAN_MOTION": 14.74494196, "ECCENTRICITY": 0.00340453, "INCLINATION": 98.9824, "RA_OF_ASC_NODE": 350.327, "ARG_OF_PERICENTER": 300.429, "MEAN_ANOMALY": 59.3553, "EPHEMERIS_TYPE": 0, "CLASSIFICATION_TYPE": "U", "NORAD_CAT_ID": 32340, "ELEMENT_SET_NO": 999, "REV_AT_EPOCH": 97167, "BSTAR": 0.0040015959, "MEAN_MOTION_DOT": 0.0002689, "MEAN_MOTION_DDOT": 0}, "tle": {"line1": "1 32340U 99025CYH 25344.74177707  .00026890  00000+0  40016-2 0  9992", "line2": "2 32340  98.9824 350.3270 0034045 300.4290  59.3553 14.74494196971677"}}, "geometry": {"type": "Point", "coordinates": [-49.67796803612838, 77.3713247327567]}}, {"type": "Feature", "properties": {"norad_id": 32342, "name": "FENGYUN 1C DEB", "group": "fengyun-1c-debris", "lat": -8.742791701371566, "lon": -0.9562614068800954, "alt_km": 846.3746893375892, "timestamp": "2025-12-15T04:01:20.737801+00:00", "meta": {"OBJECT_NAME": "FENGYUN 1C DEB", "OBJECT_ID": "1999-025CYK", "EPOCH": "2025-12-13T13:33:43.502112", "MEAN_MOTION": 14.13399152, "ECCENTRICITY": 0.00074672, "INCLINATION": 98.6704, "RA_OF_ASC_NODE": 356.1462, "ARG_OF_PERICENTER": 349.0639, "MEAN_ANOMALY": 132.7952, "EPHEMERIS_TYPE": 0, "CLASSIFICATION_TYPE": "U", "NORAD_CAT_ID": 32342, "ELEMENT_SET_NO": 999, "REV_AT_EPOCH": 93729, "BSTAR": 0.00015016943, "MEAN_MOTION_DOT": 2.4e-06, "MEAN_MOTION_DDOT": 0}, "tle": {"line1": "1 32342U 99025CYK 25347.56508683  .00000240  00000+0  15017-3 0  9993", "line2": "2 32342  98.6704 356.1462 0007467 349.0639 132.7952 14.13399152937292"}}, "geometry": {"type": "Point", "coordinates": [-0.9562614068800954, -8.742791701371566]}}]}